[{"OBJECT_NAME":"STARLINK-37068","OBJECT_ID":"2026-042S","EPOCH":"2026-04-02T05:20:07.719648","MEAN_MOTION":15.75325279,"ECCENTRICITY":0.00011706,"INCLINATION":53.1595,"RA_OF_ASC_NODE":76.9349,"ARG_OF_PERICENTER":86.1932,"MEAN_ANOMALY":273.9222,"EPHEMERIS_TYPE":0,"CLASSIFICATION_TYPE":"U","NORAD_CAT_ID":68085,"ELEMENT_SET_NO":999,"REV_AT_EPOCH":580,"BSTAR":0.00090858742,"MEAN_MOTION_DOT":0.00141521,"MEAN_MOTION_DDOT":0},{"OBJECT_NAME":"STARLINK-37067","OBJECT_ID":"2026-042T","EPOCH":"2026-04-02T20:00:01.999008","MEAN_MOTION":15.75252477,"ECCENTRICITY":9.61e-5,"INCLINATION":53.1591,"RA_OF_ASC_NODE":73.6866,"ARG_OF_PERICENTER":82.2895,"MEAN_ANOMALY":248.0046,"EPHEMERIS_TYPE":0,"CLASSIFICATION_TYPE":"U","NORAD_CAT_ID":68086,"ELEMENT_SET_NO":999,"REV_AT_EPOCH":593,"BSTAR":-0.00052025,"MEAN_MOTION_DOT":-0.00079685,"MEAN_MOTION_DDOT":0},{"OBJECT_NAME":"STARLINK-37062","OBJECT_ID":"2026-042U","EPOCH":"2026-04-02T20:00:01.999008","MEAN_MOTION":15.75244682,"ECCENTRICITY":8.99e-5,"INCLINATION":53.1588,"RA_OF_ASC_NODE":73.7354,"ARG_OF_PERICENTER":89.6224,"MEAN_ANOMALY":216.8086,"EPHEMERIS_TYPE":0,"CLASSIFICATION_TYPE":"U","NORAD_CAT_ID":68087,"ELEMENT_SET_NO":999,"REV_AT_EPOCH":593,"BSTAR":-0.00038132,"MEAN_MOTION_DOT":-0.00058699,"MEAN_MOTION_DDOT":0},{"OBJECT_NAME":"STARLINK-37059","OBJECT_ID":"2026-042V","EPOCH":"2026-04-02T08:15:50.579424","MEAN_MOTION":15.75350642,"ECCENTRICITY":0.00012947,"INCLINATION":53.1591,"RA_OF_ASC_NODE":76.2714,"ARG_OF_PERICENTER":101.7847,"MEAN_ANOMALY":258.3319,"EPHEMERIS_TYPE":0,"CLASSIFICATION_TYPE":"U","NORAD_CAT_ID":68088,"ELEMENT_SET_NO":999,"REV_AT_EPOCH":582,"BSTAR":0.0018832116,"MEAN_MOTION_DOT":0.00299965,"MEAN_MOTION_DDOT":0},{"OBJECT_NAME":"STARLINK-37004","OBJECT_ID":"2026-042W","EPOCH":"2026-04-02T08:22:22.829376","MEAN_MOTION":15.75342554,"ECCENTRICITY":0.00013766,"INCLINATION":53.1592,"RA_OF_ASC_NODE":76.3015,"ARG_OF_PERICENTER":91.7306,"MEAN_ANOMALY":268.3872,"EPHEMERIS_TYPE":0,"CLASSIFICATION_TYPE":"U","NORAD_CAT_ID":68089,"ELEMENT_SET_NO":999,"REV_AT_EPOCH":582,"BSTAR":0.0019776055,"MEAN_MOTION_DOT":0.00315508,"MEAN_MOTION_DDOT":0},{"OBJECT_NAME":"STARLINK-36320","OBJECT_ID":"2026-042X","EPOCH":"2026-03-27T03:41:33.349344","MEAN_MOTION":15.75432358,"ECCENTRICITY":0.00027632,"INCLINATION":53.1593,"RA_OF_ASC_NODE":107.3571,"ARG_OF_PERICENTER":139.4736,"MEAN_ANOMALY":220.6491,"EPHEMERIS_TYPE":0,"CLASSIFICATION_TYPE":"U","NORAD_CAT_ID":68090,"ELEMENT_SET_NO":999,"REV_AT_EPOCH":484,"BSTAR":0.002325439,"MEAN_MOTION_DOT":0.00375248,"MEAN_MOTION_DDOT":0},{"OBJECT_NAME":"STARLINK-36324","OBJECT_ID":"2026-042Y","EPOCH":"2026-04-02T20:00:01.999008","MEAN_MOTION":15.75223416,"ECCENTRICITY":0.0001032,"INCLINATION":53.1593,"RA_OF_ASC_NODE":74.2148,"ARG_OF_PERICENTER":103.2408,"MEAN_ANOMALY":329.5393,"EPHEMERIS_TYPE":0,"CLASSIFICATION_TYPE":"U","NORAD_CAT_ID":68091,"ELEMENT_SET_NO":999,"REV_AT_EPOCH":592,"BSTAR":8.7994e-6,"MEAN_MOTION_DOT":7.09e-6,"MEAN_MOTION_DDOT":0},{"OBJECT_NAME":"STARLINK-36896","OBJECT_ID":"2026-042Z","EPOCH":"2026-04-02T20:00:01.999008","MEAN_MOTION":15.75250249,"ECCENTRICITY":0.0001416,"INCLINATION":53.1584,"RA_OF_ASC_NODE":74.1053,"ARG_OF_PERICENTER":132.5851,"MEAN_ANOMALY":353.5613,"EPHEMERIS_TYPE":0,"CLASSIFICATION_TYPE":"U","NORAD_CAT_ID":68092,"ELEMENT_SET_NO":999,"REV_AT_EPOCH":593,"BSTAR":-0.0003174,"MEAN_MOTION_DOT":-0.00049036,"MEAN_MOTION_DDOT":0},{"OBJECT_NAME":"STARLINK-36251","OBJECT_ID":"2026-042AA","EPOCH":"2026-04-02T20:00:01.999008","MEAN_MOTION":15.7523556,"ECCENTRICITY":0.0001243,"INCLINATION":53.1591,"RA_OF_ASC_NODE":73.6329,"ARG_OF_PERICENTER":108.3777,"MEAN_ANOMALY":247.6859,"EPHEMERIS_TYPE":0,"CLASSIFICATION_TYPE":"U","NORAD_CAT_ID":68093,"ELEMENT_SET_NO":999,"REV_AT_EPOCH":592,"BSTAR":-0.00032058,"MEAN_MOTION_DOT":-0.00049486,"MEAN_MOTION_DDOT":0},{"OBJECT_NAME":"STARLINK-36787","OBJECT_ID":"2026-042AB","EPOCH":"2026-04-02T10:26:24.758592","MEAN_MOTION":15.75326803,"ECCENTRICITY":1.0e-6,"INCLINATION":53.1587,"RA_OF_ASC_NODE":76.139,"ARG_OF_PERICENTER":196.2451,"MEAN_ANOMALY":163.8569,"EPHEMERIS_TYPE":0,"CLASSIFICATION_TYPE":"U","NORAD_CAT_ID":68094,"ELEMENT_SET_NO":999,"REV_AT_EPOCH":582,"BSTAR":0.0023891664,"MEAN_MOTION_DOT":0.00384246,"MEAN_MOTION_DDOT":0},{"OBJECT_NAME":"STARLINK-36790","OBJECT_ID":"2026-042AC","EPOCH":"2026-04-02T16:00:01.999584","MEAN_MOTION":15.75285239,"ECCENTRICITY":0.0001013,"INCLINATION":53.1579,"RA_OF_ASC_NODE":74.7793,"ARG_OF_PERICENTER":98.926,"MEAN_ANOMALY":236.8783,"EPHEMERIS_TYPE":0,"CLASSIFICATION_TYPE":"U","NORAD_CAT_ID":68095,"ELEMENT_SET_NO":999,"REV_AT_EPOCH":589,"BSTAR":-0.00081159,"MEAN_MOTION_DOT":-0.00123495,"MEAN_MOTION_DDOT":0},{"OBJECT_NAME":"STARLINK-36328","OBJECT_ID":"2026-042AD","EPOCH":"2026-04-02T20:00:01.999008","MEAN_MOTION":15.75301497,"ECCENTRICITY":0.0001293,"INCLINATION":53.1589,"RA_OF_ASC_NODE":73.7903,"ARG_OF_PERICENTER":117.7247,"MEAN_ANOMALY":161.075,"EPHEMERIS_TYPE":0,"CLASSIFICATION_TYPE":"U","NORAD_CAT_ID":68096,"ELEMENT_SET_NO":999,"REV_AT_EPOCH":592,"BSTAR":-0.0011423,"MEAN_MOTION_DOT":-0.0017269,"MEAN_MOTION_DDOT":0},{"OBJECT_NAME":"STARLINK-36853","OBJECT_ID":"2026-042AE","EPOCH":"2026-04-02T20:00:01.999008","MEAN_MOTION":15.75242801,"ECCENTRICITY":0.0001009,"INCLINATION":53.1586,"RA_OF_ASC_NODE":73.7378,"ARG_OF_PERICENTER":70.0943,"MEAN_ANOMALY":234.4687,"EPHEMERIS_TYPE":0,"CLASSIFICATION_TYPE":"U","NORAD_CAT_ID":68097,"ELEMENT_SET_NO":999,"REV_AT_EPOCH":593,"BSTAR":-0.0003746,"MEAN_MOTION_DOT":-0.00057679,"MEAN_MOTION_DDOT":0},{"OBJECT_NAME":"GLOBAL-34","OBJECT_ID":"2026-043A","EPOCH":"2026-04-02T20:40:52.482720","MEAN_MOTION":15.32028422,"ECCENTRICITY":0.0003589,"INCLINATION":42.0208,"RA_OF_ASC_NODE":295.9341,"ARG_OF_PERICENTER":104.2885,"MEAN_ANOMALY":255.8351,"EPHEMERIS_TYPE":0,"CLASSIFICATION_TYPE":"U","NORAD_CAT_ID":68098,"ELEMENT_SET_NO":999,"REV_AT_EPOCH":427,"BSTAR":0.00065476,"MEAN_MOTION_DOT":0.00020494,"MEAN_MOTION_DDOT":0},{"OBJECT_NAME":"STARLINK-37022","OBJECT_ID":"2026-044A","EPOCH":"2026-04-02T20:00:01.999008","MEAN_MOTION":15.52342743,"ECCENTRICITY":0.0001696,"INCLINATION":97.2855,"RA_OF_ASC_NODE":54.0647,"ARG_OF_PERICENTER":104.4252,"MEAN_ANOMALY":271.9364,"EPHEMERIS_TYPE":0,"CLASSIFICATION_TYPE":"U","NORAD_CAT_ID":68101,"ELEMENT_SET_NO":999,"REV_AT_EPOCH":528,"BSTAR":-0.033566,"MEAN_MOTION_DOT":-0.01812276,"MEAN_MOTION_DDOT":0},{"OBJECT_NAME":"STARLINK-37046","OBJECT_ID":"2026-044B","EPOCH":"2026-04-02T20:00:01.999008","MEAN_MOTION":15.52915503,"ECCENTRICITY":0.0001494,"INCLINATION":97.2853,"RA_OF_ASC_NODE":54.0684,"ARG_OF_PERICENTER":76.6674,"MEAN_ANOMALY":316.1589,"EPHEMERIS_TYPE":0,"CLASSIFICATION_TYPE":"U","NORAD_CAT_ID":68102,"ELEMENT_SET_NO":999,"REV_AT_EPOCH":528,"BSTAR":-0.034136,"MEAN_MOTION_DOT":-0.01873539,"MEAN_MOTION_DDOT":0}]
