STARLINK-37068          
1 68085U 26042S   26092.22231157  .00141521  00000+0  90859-3 0  9990
2 68085  53.1595  76.9349 0001170  86.1932 273.9222 15.75325279  5809
STARLINK-37067          
1 68086U 26042T   26092.83335647 -.00079685  00000+0 -52025-3 0  9993
2 68086  53.1591  73.6866 0000961  82.2895 248.0046 15.75252477  5936
STARLINK-37062          
1 68087U 26042U   26092.83335647 -.00058699  00000+0 -38132-3 0  9999
2 68087  53.1588  73.7354 0000899  89.6224 216.8086 15.75244682  5939
STARLINK-37059          
1 68088U 26042V   26092.34433541  .00299965  00000+0  18832-2 0  9993
2 68088  53.1591  76.2714 0001294 101.7847 258.3319 15.75350642  5821
STARLINK-37004          
1 68089U 26042W   26092.34887534  .00315508  00000+0  19776-2 0  9999
2 68089  53.1592  76.3015 0001376  91.7306 268.3872 15.75342554  5825
STARLINK-36320          
1 68090U 26042X   26086.15385821  .00375248  00000+0  23254-2 0  9998
2 68090  53.1593 107.3571 0002763 139.4736 220.6491 15.75432358  4849
STARLINK-36324          
1 68091U 26042Y   26092.83335647  .00000709  00000+0  87994-5 0  9993
2 68091  53.1593  74.2148 0001032 103.2408 329.5393 15.75223416  5928
STARLINK-36896          
1 68092U 26042Z   26092.83335647 -.00049036  00000+0 -31740-3 0  9998
2 68092  53.1584  74.1053 0001416 132.5851 353.5613 15.75250249  5933
STARLINK-36251          
1 68093U 26042AA  26092.83335647 -.00049486  00000+0 -32058-3 0  9991
2 68093  53.1591  73.6329 0001243 108.3777 247.6859 15.75235560  5921
STARLINK-36787          
1 68094U 26042AB  26092.43500878  .00384246  00000+0  23892-2 0  9997
2 68094  53.1587  76.1390 0000010 196.2451 163.8569 15.75326803  5826
STARLINK-36790          
1 68095U 26042AC  26092.66668981 -.00123495  00000+0 -81159-3 0  9993
2 68095  53.1579  74.7793 0001013  98.9260 236.8783 15.75285239  5892
STARLINK-36328          
1 68096U 26042AD  26092.83335647 -.00172690  00000+0 -11423-2 0  9990
2 68096  53.1589  73.7903 0001293 117.7247 161.0750 15.75301497  5923
STARLINK-36853          
1 68097U 26042AE  26092.83335647 -.00057679  00000+0 -37460-3 0  9990
2 68097  53.1586  73.7378 0001009  70.0943 234.4687 15.75242801  5934
GLOBAL-34               
1 68098U 26043A   26092.86171855  .00020494  00000+0  65476-3 0  9995
2 68098  42.0208 295.9341 0003589 104.2885 255.8351 15.32028422  4276
STARLINK-37022          
1 68101U 26044A   26092.83335647 -.01812276  00000+0 -33566-1 0  9992
2 68101  97.2855  54.0647 0001696 104.4252 271.9364 15.52342743  5283
STARLINK-37046          
1 68102U 26044B   26092.83335647 -.01873539  00000+0 -34136-1 0  9996
2 68102  97.2853  54.0684 0001494  76.6674 316.1589 15.52915503  5288
